INTELSAT 37E (IS-37E)   
1 42950U 17059A   23333.48894434 -.00000132  00000+0  00000+0 0  9995
2 42950   0.0171 319.8790 0003601 288.9426 337.3217  1.00270825 22710
AZERSPACE 2 (IS-38)     
1 43632U 18074A   23332.82557866  .00000145  00000+0  00000+0 0  9996
2 43632   0.0172   4.7277 0001734 257.1290 147.9460  1.00271666 19109
HORIZONS-3E             
1 43633U 18074B   23331.91919208 -.00000021  00000+0  00000+0 0  9992
2 43633   0.0075  66.1550 0001402 222.3925 277.9508  1.00270004 18997
AT&T T-16               
1 44333U 19034A   23331.93711876 -.00000106  00000+0  00000+0 0  9994
2 44333   0.0166 322.8912 0000927 174.1993 166.0162  1.00269026 16286
INTELSAT 39 (IS-39)     
1 44476U 19049B   23331.89787834  .00000043  00000+0  00000+0 0  9999
2 44476   0.0158 315.3394 0000352 171.1862 325.2154  1.00270615 15780
GALAXY 30 (G-30)        
1 46114U 20056C   23331.93233251  .00000046  00000+0  00000+0 0  9997
2 46114   0.0169 332.5950 0002358 266.7178  37.9315  1.00270070 11946
GALAXY 33 (G-33)        
1 54026U 22128A   23333.43382686  .00000088  00000+0  00000+0 0  9990
2 54026   0.0105 355.1976 0002029 249.2080 206.8337  1.00271149  4412
GALAXY 34 (G-34)        
1 54027U 22128B   23333.15541953  .00000067  00000+0  00000+0 0  9991
2 54027   0.0215 311.6084 0001483 291.0206 112.1388  1.00273972  4444
GALAXY 31 (G-31)        
1 54243U 22153A   23331.64649829  .00000023  00000+0  00000+0 0  9994
2 54243   0.0157 284.2688 0002925 340.2953 273.4909  1.00272016  3797
GALAXY 32 (G-32)        
1 54244U 22153B   23332.94181411 -.00000165  00000+0  00000+0 0  9995
2 54244   0.0121 326.3491 0002134 335.6131  13.6769  1.00271496  3820
GALAXY 35 (G-35)        
1 54741U 22170A   23332.86969920 -.00000153  00000+0  00000+0 0  9993
2 54741   0.0177 324.0537 0002353 303.4036  20.0560  1.00272096  3557
GALAXY 36 (G-36)        
1 54742U 22170B   23333.44064802 -.00000177  00000+0  00000+0 0  9990
2 54742   0.0080 283.6056 0000675 225.4694 348.6397  1.00271514  3589
GALAXY 37 (G-37)        
1 57493U 23112A   23332.64828237  .00000057  00000+0  00000+0 0  9990
2 57493   0.0150 332.9168 0002277 277.2652 283.5096  1.00274076  1200
